[
    {
        "Altitude(m)": 717643.1727257419,
        "Argument of Periapsis(deg)": 0.0,
        "Eccentricity": 0.0,
        "Inclination(deg)": 45.0,
        "Latitude(deg)": -44.57591660484254,
        "Longitude(deg)": 76.50225782434066,
        "Mean Anomaly(deg)": -81.8182,
        "RAAN(deg)": 255.0,
        "Satellite Name": "Constellation 1 1139",
        "Satellite Number": 1139,
        "Semi-Major Axis(m)": 7083131.272910544,
        "Time(s)": 0
    },
    {
        "Altitude(m)": 717639.6362845671,
        "Argument of Periapsis(deg)": 5.994800624540561e-05,
        "Eccentricity": 0.0,
        "Inclination(deg)": 45.0,
        "Latitude(deg)": -44.56735638532967,
        "Longitude(deg)": 76.58208074646598,
        "Mean Anomaly(deg)": -81.75749885975014,
        "RAAN(deg)": 254.99994341083445,
        "Satellite Name": "Constellation 1 1139",
        "Satellite Number": 1139,
        "Semi-Major Axis(m)": 7083131.272910544,
        "Time(s)": 1
    },
    {
        "Altitude(m)": 717636.0743296028,
        "Argument of Periapsis(deg)": 0.00011989601249081122,
        "Eccentricity": 0.0,
        "Inclination(deg)": 45.0,
        "Latitude(deg)": -44.558734513741044,
        "Longitude(deg)": 76.66187901921658,
        "Mean Anomaly(deg)": -81.69679771950021,
        "RAAN(deg)": 254.9998868216689,
        "Satellite Name": "Constellation 1 1139",
        "Satellite Number": 1139,
        "Semi-Major Axis(m)": 7083131.272910544,
        "Time(s)": 2
    },
    {
        "Altitude(m)": 717632.4868739676,
        "Argument of Periapsis(deg)": 0.00017984401873621686,
        "Eccentricity": 0.0,
        "Inclination(deg)": 45.0,
        "Latitude(deg)": -44.550051026365516,
        "Longitude(deg)": 76.74165248058091,
        "Mean Anomaly(deg)": -81.63609657925029,
        "RAAN(deg)": 254.99983023250329,
        "Satellite Name": "Constellation 1 1139",
        "Satellite Number": 1139,
        "Semi-Major Axis(m)": 7083131.272910544,
        "Time(s)": 3
    },
    {
        "Altitude(m)": 717628.8739308738,
        "Argument of Periapsis(deg)": 0.00023979202498162244,
        "Eccentricity": 0.0,
        "Inclination(deg)": 45.0,
        "Latitude(deg)": -44.54130595972388,
        "Longitude(deg)": 76.82140096895897,
        "Mean Anomaly(deg)": -81.57539543900046,
        "RAAN(deg)": 254.99977364333773,
        "Satellite Name": "Constellation 1 1139",
        "Satellite Number": 1139,
        "Semi-Major Axis(m)": 7083131.272910544,
        "Time(s)": 4
    },
    {
        "Altitude(m)": 717625.2355136434,
        "Argument of Periapsis(deg)": 0.00029974003122702807,
        "Eccentricity": 0.0,
        "Inclination(deg)": 45.0,
        "Latitude(deg)": -44.532499350568386,
        "Longitude(deg)": 76.9011243231641,
        "Mean Anomaly(deg)": -81.5146942987505,
        "RAAN(deg)": 254.99971705417215,
        "Satellite Name": "Constellation 1 1139",
        "Satellite Number": 1139,
        "Semi-Major Axis(m)": 7083131.272910544,
        "Time(s)": 5
    },
    {
        "Altitude(m)": 717621.57163567,
        "Argument of Periapsis(deg)": 0.00035968803747243373,
        "Eccentricity": 0.0,
        "Inclination(deg)": 45.0,
        "Latitude(deg)": -44.52363123588201,
        "Longitude(deg)": 76.98082238242478,
        "Mean Anomaly(deg)": -81.45399315850067,
        "RAAN(deg)": 254.9996604650066,
        "Satellite Name": "Constellation 1 1139",
        "Satellite Number": 1139,
        "Semi-Major Axis(m)": 7083131.272910544,
        "Time(s)": 6
    },
    {
        "Altitude(m)": 717617.8823104571,
        "Argument of Periapsis(deg)": 0.00041963604371783933,
        "Eccentricity": 0.0,
        "Inclination(deg)": 45.0,
        "Latitude(deg)": -44.51470165287776,
        "Longitude(deg)": 77.0604948182908,
        "Mean Anomaly(deg)": -81.3932920182507,
        "RAAN(deg)": 254.99960387584105,
        "Satellite Name": "Constellation 1 1139",
        "Satellite Number": 1139,
        "Semi-Major Axis(m)": 7083131.272910544,
        "Time(s)": 7
    },
    {
        "Altitude(m)": 717614.1675515929,
        "Argument of Periapsis(deg)": 0.0004795840499632449,
        "Eccentricity": 0.0,
        "Inclination(deg)": 45.0,
        "Latitude(deg)": -44.50571063899762,
        "Longitude(deg)": 77.1401418070217,
        "Mean Anomaly(deg)": -81.33259087800081,
        "RAAN(deg)": 254.99954728667544,
        "Satellite Name": "Constellation 1 1139",
        "Satellite Number": 1139,
        "Semi-Major Axis(m)": 7083131.272910544,
        "Time(s)": 8
    },
    {
        "Altitude(m)": 717610.4273727629,
        "Argument of Periapsis(deg)": 0.0005395320562086505,
        "Eccentricity": 0.0,
        "Inclination(deg)": 45.0,
        "Latitude(deg)": -44.49665823191246,
        "Longitude(deg)": 77.2197630210091,
        "Mean Anomaly(deg)": -81.27188973775085,
        "RAAN(deg)": 254.99949069750988,
        "Satellite Name": "Constellation 1 1139",
        "Satellite Number": 1139,
        "Semi-Major Axis(m)": 7083131.272910544,
        "Time(s)": 9
    },
    {
        "Altitude(m)": 717606.6617877469,
        "Argument of Periapsis(deg)": 0.0005994800624540561,
        "Eccentricity": 0.0,
        "Inclination(deg)": 45.0,
        "Latitude(deg)": -44.48754446952081,
        "Longitude(deg)": 77.29935830116486,
        "Mean Anomaly(deg)": -81.21118859750109,
        "RAAN(deg)": 254.99943410834433,
        "Satellite Name": "Constellation 1 1139",
        "Satellite Number": 1139,
        "Semi-Major Axis(m)": 7083131.272910544,
        "Time(s)": 10
    },
    {
        "Altitude(m)": 717602.8708104157,
        "Argument of Periapsis(deg)": 0.0006594280686994618,
        "Eccentricity": 0.0,
        "Inclination(deg)": 45.0,
        "Latitude(deg)": -44.478369389948305,
        "Longitude(deg)": 77.37892748882798,
        "Mean Anomaly(deg)": -81.15048745725115,
        "RAAN(deg)": 254.99937751917878,
        "Satellite Name": "Constellation 1 1139",
        "Satellite Number": 1139,
        "Semi-Major Axis(m)": 7083131.272910544,
        "Time(s)": 11
    },
    {
        "Altitude(m)": 717599.0544547372,
        "Argument of Periapsis(deg)": 0.0007193760749448675,
        "Eccentricity": 0.0,
        "Inclination(deg)": 45.0,
        "Latitude(deg)": -44.469133031546896,
        "Longitude(deg)": 77.45847042576506,
        "Mean Anomaly(deg)": -81.08978631700118,
        "RAAN(deg)": 254.9993209300132,
        "Satellite Name": "Constellation 1 1139",
        "Satellite Number": 1139,
        "Semi-Major Axis(m)": 7083131.272910544,
        "Time(s)": 12
    },
    {
        "Altitude(m)": 717595.2127347655,
        "Argument of Periapsis(deg)": 0.000779324081190273,
        "Eccentricity": 0.0,
        "Inclination(deg)": 45.0,
        "Latitude(deg)": -44.45983543289421,
        "Longitude(deg)": 77.53798695417305,
        "Mean Anomaly(deg)": -81.02908517675135,
        "RAAN(deg)": 254.99926434084762,
        "Satellite Name": "Constellation 1 1139",
        "Satellite Number": 1139,
        "Semi-Major Axis(m)": 7083131.272910544,
        "Time(s)": 13
    },
    {
        "Altitude(m)": 717591.3456646554,
        "Argument of Periapsis(deg)": 0.0008392720874356787,
        "Eccentricity": 0.0,
        "Inclination(deg)": 45.0,
        "Latitude(deg)": -44.4504766327927,
        "Longitude(deg)": 77.61747691668181,
        "Mean Anomaly(deg)": -80.96838403650145,
        "RAAN(deg)": 254.99920775168204,
        "Satellite Name": "Constellation 1 1139",
        "Satellite Number": 1139,
        "Semi-Major Axis(m)": 7083131.272910544,
        "Time(s)": 14
    },
    {
        "Altitude(m)": 717587.4532586533,
        "Argument of Periapsis(deg)": 0.0008992200936810842,
        "Eccentricity": 0.0,
        "Inclination(deg)": 45.0,
        "Latitude(deg)": -44.44105667026911,
        "Longitude(deg)": 77.69693998825876,
        "Mean Anomaly(deg)": -80.90768289625152,
        "RAAN(deg)": 254.99915116251648,
        "Satellite Name": "Constellation 1 1139",
        "Satellite Number": 1139,
        "Semi-Major Axis(m)": 7083131.272910544,
        "Time(s)": 15
    },
    {
        "Altitude(m)": 717583.5355310942,
        "Argument of Periapsis(deg)": 0.0009591680999264898,
        "Eccentricity": 0.0,
        "Inclination(deg)": 45.0,
        "Latitude(deg)": -44.43157558457319,
        "Longitude(deg)": 77.77637634859796,
        "Mean Anomaly(deg)": -80.84698175600154,
        "RAAN(deg)": 254.99909457335093,
        "Satellite Name": "Constellation 1 1139",
        "Satellite Number": 1139,
        "Semi-Major Axis(m)": 7083131.272910544,
        "Time(s)": 16
    },
    {
        "Altitude(m)": 717579.5924964092,
        "Argument of Periapsis(deg)": 0.0010191161061718953,
        "Eccentricity": 0.0,
        "Inclination(deg)": 45.0,
        "Latitude(deg)": -44.422033415177744,
        "Longitude(deg)": 77.8557856735415,
        "Mean Anomaly(deg)": -80.78628061575182,
        "RAAN(deg)": 254.99903798418535,
        "Satellite Name": "Constellation 1 1139",
        "Satellite Number": 1139,
        "Semi-Major Axis(m)": 7083131.272910544,
        "Time(s)": 17
    },
    {
        "Altitude(m)": 717575.6241691299,
        "Argument of Periapsis(deg)": 0.001079064112417301,
        "Eccentricity": 0.0,
        "Inclination(deg)": 45.0,
        "Latitude(deg)": -44.41243020177723,
        "Longitude(deg)": 77.93516780746968,
        "Mean Anomaly(deg)": -80.72557947550185,
        "RAAN(deg)": 254.99898139501977,
        "Satellite Name": "Constellation 1 1139",
        "Satellite Number": 1139,
        "Semi-Major Axis(m)": 7083131.272910544,
        "Time(s)": 18
    }
]